CCSDS_OMM_VERS = 2.0
CREATION_DATE  = 
ORIGINATOR     = 

OBJECT_NAME    = STARLINK-36698
OBJECT_ID      = 2026-025S
CENTER_NAME    = EARTH
REF_FRAME      = TEME
TIME_SYSTEM    = UTC
MEAN_ELEMENT_THEORY = SGP/SGP4

EPOCH          = 2026-02-23T06:00:02.000160
MEAN_MOTION    = 15.80834746
ECCENTRICITY   = .00010554
INCLINATION    = 97.2697
RA_OF_ASC_NODE = 165.1426
ARG_OF_PERICENTER = 63.5149
MEAN_ANOMALY   = 129.0896

EPHEMERIS_TYPE = 0
CLASSIFICATION_TYPE = U
NORAD_CAT_ID   = 67709
ELEMENT_SET_NO = 999
REV_AT_EPOCH   = 353
BSTAR          = .5027262E-5
MEAN_MOTION_DOT = .823E-5
MEAN_MOTION_DDOT = 0

CCSDS_OMM_VERS = 2.0
CREATION_DATE  = 
ORIGINATOR     = 

OBJECT_NAME    = STARLINK-36344
OBJECT_ID      = 2026-025T
CENTER_NAME    = EARTH
REF_FRAME      = TEME
TIME_SYSTEM    = UTC
MEAN_ELEMENT_THEORY = SGP/SGP4

EPOCH          = 2026-02-23T06:00:02.000160
MEAN_MOTION    = 15.80716544
ECCENTRICITY   = .00018521
INCLINATION    = 97.2707
RA_OF_ASC_NODE = 165.1322
ARG_OF_PERICENTER = 47.9132
MEAN_ANOMALY   = 120.2297

EPHEMERIS_TYPE = 0
CLASSIFICATION_TYPE = U
NORAD_CAT_ID   = 67710
ELEMENT_SET_NO = 999
REV_AT_EPOCH   = 369
BSTAR          = .12636747E-2
MEAN_MOTION_DOT = .24779E-2
MEAN_MOTION_DDOT = 0

CCSDS_OMM_VERS = 2.0
CREATION_DATE  = 
ORIGINATOR     = 

OBJECT_NAME    = STARLINK-36687
OBJECT_ID      = 2026-025U
CENTER_NAME    = EARTH
REF_FRAME      = TEME
TIME_SYSTEM    = UTC
MEAN_ELEMENT_THEORY = SGP/SGP4

EPOCH          = 2026-02-23T06:00:02.000160
MEAN_MOTION    = 15.80779643
ECCENTRICITY   = .00010015
INCLINATION    = 97.2702
RA_OF_ASC_NODE = 165.1369
ARG_OF_PERICENTER = 53.5610
MEAN_ANOMALY   = 125.9598

EPHEMERIS_TYPE = 0
CLASSIFICATION_TYPE = U
NORAD_CAT_ID   = 67711
ELEMENT_SET_NO = 999
REV_AT_EPOCH   = 369
BSTAR          = .37442739E-3
MEAN_MOTION_DOT = .72052E-3
MEAN_MOTION_DDOT = 0

CCSDS_OMM_VERS = 2.0
CREATION_DATE  = 
ORIGINATOR     = 

OBJECT_NAME    = STARLINK-36705
OBJECT_ID      = 2026-025V
CENTER_NAME    = EARTH
REF_FRAME      = TEME
TIME_SYSTEM    = UTC
MEAN_ELEMENT_THEORY = SGP/SGP4

EPOCH          = 2026-02-23T06:00:02.000160
MEAN_MOTION    = 15.81295818
ECCENTRICITY   = .00016583
INCLINATION    = 97.2687
RA_OF_ASC_NODE = 165.1474
ARG_OF_PERICENTER = 62.7637
MEAN_ANOMALY   = 143.4507

EPHEMERIS_TYPE = 0
CLASSIFICATION_TYPE = U
NORAD_CAT_ID   = 67712
ELEMENT_SET_NO = 999
REV_AT_EPOCH   = 359
BSTAR          = -.35862844E-2
MEAN_MOTION_DOT = -.652444E-2
MEAN_MOTION_DDOT = 0

CCSDS_OMM_VERS = 2.0
CREATION_DATE  = 
ORIGINATOR     = 

OBJECT_NAME    = STARLINK-36708
OBJECT_ID      = 2026-025W
CENTER_NAME    = EARTH
REF_FRAME      = TEME
TIME_SYSTEM    = UTC
MEAN_ELEMENT_THEORY = SGP/SGP4

EPOCH          = 2026-02-23T06:00:02.000160
MEAN_MOTION    = 15.82616865
ECCENTRICITY   = .00018252
INCLINATION    = 97.2684
RA_OF_ASC_NODE = 165.1619
ARG_OF_PERICENTER = 71.5988
MEAN_ANOMALY   = 166.9074

EPHEMERIS_TYPE = 0
CLASSIFICATION_TYPE = U
NORAD_CAT_ID   = 67713
ELEMENT_SET_NO = 999
REV_AT_EPOCH   = 359
BSTAR          = -.88150196E-2
MEAN_MOTION_DOT = -.160691E-1
MEAN_MOTION_DDOT = 0

CCSDS_OMM_VERS = 2.0
CREATION_DATE  = 
ORIGINATOR     = 

OBJECT_NAME    = STARLINK-36702
OBJECT_ID      = 2026-025X
CENTER_NAME    = EARTH
REF_FRAME      = TEME
TIME_SYSTEM    = UTC
MEAN_ELEMENT_THEORY = SGP/SGP4

EPOCH          = 2026-02-23T06:00:02.000160
MEAN_MOTION    = 15.82309071
ECCENTRICITY   = .00017708
INCLINATION    = 97.2682
RA_OF_ASC_NODE = 165.1573
ARG_OF_PERICENTER = 72.2484
MEAN_ANOMALY   = 156.5057

EPHEMERIS_TYPE = 0
CLASSIFICATION_TYPE = U
NORAD_CAT_ID   = 67714
ELEMENT_SET_NO = 999
REV_AT_EPOCH   = 332
BSTAR          = -.88276735E-2
MEAN_MOTION_DOT = -.1588635E-1
MEAN_MOTION_DDOT = 0

CCSDS_OMM_VERS = 2.0
CREATION_DATE  = 
ORIGINATOR     = 

OBJECT_NAME    = STARLINK-36718
OBJECT_ID      = 2026-025Y
CENTER_NAME    = EARTH
REF_FRAME      = TEME
TIME_SYSTEM    = UTC
MEAN_ELEMENT_THEORY = SGP/SGP4

EPOCH          = 2026-02-23T06:00:02.000160
MEAN_MOTION    = 15.83353857
ECCENTRICITY   = .0001367
INCLINATION    = 97.2685
RA_OF_ASC_NODE = 165.1723
ARG_OF_PERICENTER = 71.9237
MEAN_ANOMALY   = 189.8442

EPHEMERIS_TYPE = 0
CLASSIFICATION_TYPE = U
NORAD_CAT_ID   = 67715
ELEMENT_SET_NO = 999
REV_AT_EPOCH   = 353
BSTAR          = -.85841931E-2
MEAN_MOTION_DOT = -.1618245E-1
MEAN_MOTION_DDOT = 0

CCSDS_OMM_VERS = 2.0
CREATION_DATE  = 
ORIGINATOR     = 

OBJECT_NAME    = STARLINK-36715
OBJECT_ID      = 2026-025Z
CENTER_NAME    = EARTH
REF_FRAME      = TEME
TIME_SYSTEM    = UTC
MEAN_ELEMENT_THEORY = SGP/SGP4

EPOCH          = 2026-02-23T06:00:02.000160
MEAN_MOTION    = 15.83008619
ECCENTRICITY   = .00015843
INCLINATION    = 97.2680
RA_OF_ASC_NODE = 165.1672
ARG_OF_PERICENTER = 63.3634
MEAN_ANOMALY   = 187.4787

EPHEMERIS_TYPE = 0
CLASSIFICATION_TYPE = U
NORAD_CAT_ID   = 67716
ELEMENT_SET_NO = 999
REV_AT_EPOCH   = 359
BSTAR          = -.87093135E-2
MEAN_MOTION_DOT = -.1615756E-1
MEAN_MOTION_DDOT = 0

CCSDS_OMM_VERS = 2.0
CREATION_DATE  = 
ORIGINATOR     = 

OBJECT_NAME    = STARLINK-36385
OBJECT_ID      = 2026-025AA
CENTER_NAME    = EARTH
REF_FRAME      = TEME
TIME_SYSTEM    = UTC
MEAN_ELEMENT_THEORY = SGP/SGP4

EPOCH          = 2026-02-23T06:00:02.000160
MEAN_MOTION    = 15.81790456
ECCENTRICITY   = .00015898
INCLINATION    = 97.2690
RA_OF_ASC_NODE = 165.1530
ARG_OF_PERICENTER = 64.2281
MEAN_ANOMALY   = 152.8207

EPHEMERIS_TYPE = 0
CLASSIFICATION_TYPE = U
NORAD_CAT_ID   = 67717
ELEMENT_SET_NO = 999
REV_AT_EPOCH   = 359
BSTAR          = -.67286085E-2
MEAN_MOTION_DOT = -.1200248E-1
MEAN_MOTION_DDOT = 0

