STARLINK-36698          
1 67709U 26025S   26054.25002315  .00000823  00000+0  50273-5 0  9993
2 67709  97.2697 165.1426 0001055  63.5149 129.0896 15.80834746  3537
STARLINK-36344          
1 67710U 26025T   26054.25002315  .00247790  00000+0  12637-2 0  9990
2 67710  97.2707 165.1322 0001852  47.9132 120.2297 15.80716544  3699
STARLINK-36687          
1 67711U 26025U   26054.25002315  .00072052  00000+0  37443-3 0  9991
2 67711  97.2702 165.1369 0001001  53.5610 125.9598 15.80779643  3691
STARLINK-36705          
1 67712U 26025V   26054.25002315 -.00652444  00000+0 -35863-2 0  9996
2 67712  97.2687 165.1474 0001658  62.7637 143.4507 15.81295818  3592
STARLINK-36708          
1 67713U 26025W   26054.25002315 -.01606910  00000+0 -88150-2 0  9992
2 67713  97.2684 165.1619 0001825  71.5988 166.9074 15.82616865  3593
STARLINK-36702          
1 67714U 26025X   26054.25002315 -.01588635  00000+0 -88277-2 0  9996
2 67714  97.2682 165.1573 0001770  72.2484 156.5057 15.82309071  3324
STARLINK-36718          
1 67715U 26025Y   26054.25002315 -.01618245  00000+0 -85842-2 0  9993
2 67715  97.2685 165.1723 0001367  71.9237 189.8442 15.83353857  3531
STARLINK-36715          
1 67716U 26025Z   26054.25002315 -.01615756  00000+0 -87093-2 0  9998
2 67716  97.2680 165.1672 0001584  63.3634 187.4787 15.83008619  3592
STARLINK-36385          
1 67717U 26025AA  26054.25002315 -.01200248  00000+0 -67286-2 0  9997
2 67717  97.2690 165.1530 0001589  64.2281 152.8207 15.81790456  3598
